$$SOE
2460154.500000000, A.D. 2023-Jul-29 00:00:00.0000, -1.674692768078868E+08, -2.508225084383865E+08, -1.166478131255740E+07,
2460161.500000000, A.D. 2023-Aug-05 00:00:00.0000, -1.562832770855270E+08, -2.588000405650432E+08, -1.166485569361901E+07,
2460168.500000000, A.D. 2023-Aug-12 00:00:00.0000, -1.448234202257549E+08, -2.663240602920103E+08, -1.164448594452108E+07,
2460175.500000000, A.D. 2023-Aug-19 00:00:00.0000, -1.331118519884780E+08, -2.733851798581309E+08, -1.160387355074298E+07,
2460182.500000000, A.D. 2023-Aug-26 00:00:00.0000, -1.211710040917018E+08, -2.799753913488416E+08, -1.154326991876090E+07,
2460189.500000000, A.D. 2023-Sep-02 00:00:00.0000, -1.090234859948679E+08, -2.860880616677527E+08, -1.146297378603633E+07,
2460196.500000000, A.D. 2023-Sep-09 00:00:00.0000, -9.669197993937534E+07, -2.917179175585948E+08, -1.136332839894649E+07,
2460203.500000000, A.D. 2023-Sep-16 00:00:00.0000, -8.419914011463962E+07, -2.968610214542731E+08, -1.124471852443863E+07,
2460210.500000000, A.D. 2023-Sep-23 00:00:00.0000, -7.156749642991668E+07, -3.015147386904947E+08, -1.110756735601063E+07,
2460217.500000000, A.D. 2023-Sep-30 00:00:00.0000, -5.881936398000797E+07, -3.056776957967882E+08, -1.095233323062357E+07,
2460224.500000000, A.D. 2023-Oct-07 00:00:00.0000, -4.597676115464887E+07, -3.093497313626968E+08, -1.077950602838778E+07,
2460231.500000000, A.D. 2023-Oct-14 00:00:00.0000, -3.306133579505397E+07, -3.125318437760956E+08, -1.058960366234297E+07,
2460238.500000000, A.D. 2023-Oct-21 00:00:00.0000, -2.009429646713468E+07, -3.152261352242976E+08, -1.038316886163430E+07,
2460245.500000000, A.D. 2023-Oct-28 00:00:00.0000, -7.096350438134559E+06, -3.174357506754974E+08, -1.016076596686545E+07,
2460252.500000000, A.D. 2023-Nov-04 00:00:00.0000, 5.912350357709315E+06, -3.191648135515571E+08, -9.922977715892226E+06,
2460259.500000000, A.D. 2023-Nov-11 00:00:00.0000, 1.891225562048180E+07, -3.204183595819930E+08, -9.670402111180693E+06,
2460266.500000000, A.D. 2023-Nov-18 00:00:00.0000, 3.188445564991672E+07, -3.212022697308325E+08, -9.403649415800408E+06,
2460273.500000000, A.D. 2023-Nov-25 00:00:00.0000, 4.481071331023202E+07, -3.215232029290112E+08, -9.123339300705209E+06,
2460280.500000000, A.D. 2023-Dec-02 00:00:00.0000, 5.767348935684096E+07, -3.213885293028383E+08, -8.830098160995707E+06,
2460287.500000000, A.D. 2023-Dec-09 00:00:00.0000, 7.045596159234379E+07, -3.208062645605614E+08, -8.524556623537838E+06,
2460294.500000000, A.D. 2023-Dec-16 00:00:00.0000, 8.314203856768796E+07, -3.197850060491233E+08, -8.207347277935207E+06,
2460301.500000000, A.D. 2023-Dec-23 00:00:00.0000, 9.571636863128059E+07, -3.183338702376986E+08, -7.879102610072359E+06,
2460308.500000000, A.D. 2023-Dec-30 00:00:00.0000, 1.081643434556875E+08, -3.164624309435525E+08, -7.540452930382192E+06,
2460315.500000000, A.D. 2024-Jan-06 00:00:00.0000, 1.204720947454435E+08, -3.141806609497718E+08, -7.192024325905338E+06,
2460322.500000000, A.D. 2024-Jan-13 00:00:00.0000, 1.326264877738723E+08, -3.114988790427725E+08, -6.834437071738333E+06,
2460329.500000000, A.D. 2024-Jan-20 00:00:00.0000, 1.446151134384148E+08, -3.084276995483209E+08, -6.468304357096776E+06,
2460336.500000000, A.D. 2024-Jan-27 00:00:00.0000, 1.564262772539751E+08, -3.049779838226001E+08, -6.094231080090344E+06,
2460343.500000000, A.D. 2024-Feb-03 00:00:00.0000, 1.680489852823700E+08, -3.011607947047813E+08, -5.712812741809607E+06,
2460350.500000000, A.D. 2024-Feb-10 00:00:00.0000, 1.794729276773342E+08, -2.969873542364708E+08, -5.324634480509728E+06,
2460357.500000000, A.D. 2024-Feb-17 00:00:00.0000, 1.906884603587737E+08, -2.924690046177386E+08, -4.930270248895839E+06,
2460364.500000000, A.D. 2024-Feb-24 00:00:00.0000, 2.016865851977728E+08, -2.876171723314701E+08, -4.530282127166897E+06,
2460371.500000000, A.D. 2024-Mar-02 00:00:00.0000, 2.124589290569475E+08, -2.824433353884261E+08, -4.125219767649561E+06,
2460378.500000000, A.D. 2024-Mar-09 00:00:00.0000, 2.229977221108356E+08, -2.769589936543167E+08, -3.715619979336977E+06,
2460385.500000000, A.D. 2024-Mar-16 00:00:00.0000, 2.332957760984231E+08, -2.711756419450190E+08, -3.302006462743208E+06,
2460392.500000000, A.D. 2024-Mar-23 00:00:00.0000, 2.433464626305055E+08, -2.651047446522381E+08, -2.884889585388094E+06,
2460399.500000000, A.D. 2024-Mar-30 00:00:00.0000, 2.531436895080676E+08, -2.587577117848246E+08, -2.464765985882610E+06,
2460406.500000000, A.D. 2024-Apr-06 00:00:00.0000, 2.626818754824929E+08, -2.521458796410291E+08, -2.042118297697723E+06,
2460413.500000000, A.D. 2024-Apr-13 00:00:00.0000, 2.719559271673141E+08, -2.452804951224734E+08, -1.617415242624715E+06,
2460420.500000000, A.D. 2024-Apr-20 00:00:00.0000, 2.809612172897328E+08, -2.381727008685614E+08, -1.191111780145124E+06,
2460427.500000000, A.D. 2024-Apr-27 00:00:00.0000, 2.896935628815096E+08, -2.308335216336744E+08, -7.636492117615640E+05,
2460434.500000000, A.D. 2024-May-04 00:00:00.0000, 2.981492035906891E+08, -2.232738524725872E+08, -3.354552986780554E+05,
2460441.500000000, A.D. 2024-May-11 00:00:00.0000, 3.063247804273503E+08, -2.155044486987446E+08, 9.305558346289396E+04,
2460448.500000000, A.D. 2024-May-18 00:00:00.0000, 3.142173150853137E+08, -2.075359174595008E+08, 5.214822528825849E+05,
2460455.500000000, A.D. 2024-May-25 00:00:00.0000, 3.218241899115955E+08, -1.993787108062305E+08, 9.494364954525381E+05,
2460462.500000000, A.D. 2024-Jun-01 00:00:00.0000, 3.291431286184010E+08, -1.910431201934412E+08, 1.376542798493609E+06,
2460469.500000000, A.D. 2024-Jun-08 00:00:00.0000, 3.361721780083449E+08, -1.825392723117675E+08, 1.802438024269275E+06,
2460476.500000000, A.D. 2024-Jun-15 00:00:00.0000, 3.429096911302410E+08, -1.738771255977391E+08, 2.226771035088055E+06,
2460483.500000000, A.D. 2024-Jun-22 00:00:00.0000, 3.493543108736525E+08, -1.650664661431308E+08, 2.649202462365657E+06,
2460490.500000000, A.D. 2024-Jun-29 00:00:00.0000, 3.555049518852215E+08, -1.561169047323172E+08, 3.069404668993860E+06,
2460497.500000000, A.D. 2024-Jul-06 00:00:00.0000, 3.613607834462323E+08, -1.470378773901480E+08, 3.487061463072866E+06,
2460504.500000000, A.D. 2024-Jul-13 00:00:00.0000, 3.669212152515698E+08, -1.378386465316309E+08, 3.901867617347904E+06,
2460511.500000000, A.D. 2024-Jul-20 00:00:00.0000, 3.721858840942068E+08, -1.285283014879088E+08, 4.313528472666062E+06,
2460518.500000000, A.D. 2024-Jul-27 00:00:00.0000, 3.771546407858344E+08, -1.191157592983089E+08, 4.721759609202221E+06,
2460525.500000000, A.D. 2024-Aug-03 00:00:00.0000, 3.818275375699823E+08, -1.096097660793672E+08, 5.126286531396464E+06,
2460532.500000000, A.D. 2024-Aug-10 00:00:00.0000, 3.862048161746261E+08, -1.000188989164537E+08, 5.526844352352936E+06,
2460539.500000000, A.D. 2024-Aug-17 00:00:00.0000, 3.902868965313273E+08, -9.035156820259178E+07, 5.923177476227853E+06,
2460546.500000000, A.D. 2024-Aug-24 00:00:00.0000, 3.940743661671929E+08, -8.061602039820035E+07, 6.315039275108755E+06,
2460553.500000000, A.D. 2024-Aug-31 00:00:00.0000, 3.975679703619267E+08, -7.082034122972876E+07, 6.702191745338492E+06,
2460560.500000000, A.D. 2024-Sep-07 00:00:00.0000, 4.007686034094028E+08, -6.097245916086349E+07, 7.084405120291203E+06,
2460567.500000000, A.D. 2024-Sep-14 00:00:00.0000, 4.036773010424680E+08, -5.108014810184603E+07, 7.461457513377102E+06,
2460574.500000000, A.D. 2024-Sep-21 00:00:00.0000, 4.062952319699568E+08, -4.115102890918432E+07, 7.833134811748527E+06,
2460581.500000000, A.D. 2024-Sep-28 00:00:00.0000, 4.086236880170074E+08, -3.119257287467205E+07, 8.199230602036111E+06,
2460588.500000000, A.D. 2024-Oct-05 00:00:00.0000, 4.106640765130059E+08, -2.121210717517033E+07, 8.559545791411579E+06,
2460595.500000000, A.D. 2024-Oct-12 00:00:00.0000, 4.124179145428960E+08, -1.121681927648449E+07, 8.913888200574683E+06,
2460602.500000000, A.D. 2024-Oct-19 00:00:00.0000, 4.138868232911022E+08, -1.213760539088465E+06, 9.262072267431362E+06,
2460609.500000000, A.D. 2024-Oct-26 00:00:00.0000, 4.150725224270138E+08, 8.790150192244140E+06, 9.603918799241032E+06,
2460616.500000000, A.D. 2024-Nov-02 00:00:00.0000, 4.159768247707976E+08, 1.878812288319402E+07, 9.939254737748072E+06,
2460623.500000000, A.D. 2024-Nov-09 00:00:00.0000, 4.166016313177972E+08, 2.877349252439097E+07, 1.026791293034385E+07,
2460630.500000000, A.D. 2024-Nov-16 00:00:00.0000, 4.169489266295739E+08, 3.873971527876099E+07, 1.058973190510119E+07,
2460637.500000000, A.D. 2024-Nov-23 00:00:00.0000, 4.170207746212448E+08, 4.868036452270843E+07, 1.090455564143559E+07,
2460644.500000000, A.D. 2024-Nov-30 00:00:00.0000, 4.168193149359517E+08, 5.858912674696449E+07, 1.121223331371933E+07,
2460651.500000000, A.D. 2024-Dec-07 00:00:00.0000, 4.163467603061547E+08, 6.845979774443856E+07, 1.151261900324320E+07,
2460658.500000000, A.D. 2024-Dec-14 00:00:00.0000, 4.156053941916328E+08, 7.828628031748953E+07, 1.180557154117895E+07,
2460665.500000000, A.D. 2024-Dec-21 00:00:00.0000, 4.145975663594331E+08, 8.806258227462101E+07, 1.209095459398070E+07,
2460672.500000000, A.D. 2024-Dec-28 00:00:00.0000, 4.133256883666592E+08, 9.778281175710538E+07, 1.236863656803217E+07,
2460679.500000000, A.D. 2025-Jan-04 00:00:00.0000, 4.117922315303239E+08, 1.074411722777729E+08, 1.263849028951086E+07,
2460686.500000000, A.D. 2025-Jan-11 00:00:00.0000, 4.099997255518166E+08, 1.170319591378601E+08, 1.290039276256135E+07,
2460693.500000000, A.D. 2025-Jan-18 00:00:00.0000, 4.079507568701686E+08, 1.265495563071948E+08, 1.315422501528513E+07,
2460700.500000000, A.D. 2025-Jan-25 00:00:00.0000, 4.056479669783621E+08, 1.359884332955194E+08, 1.339987197268291E+07,
2460707.500000000, A.D. 2025-Feb-01 00:00:00.0000, 4.030940508821950E+08, 1.453431419866983E+08, 1.363722233677406E+07,
2460714.500000000, A.D. 2025-Feb-08 00:00:00.0000, 4.002917557500617E+08, 1.546083134574609E+08, 1.386616847014270E+07,
2460721.500000000, A.D. 2025-Feb-15 00:00:00.0000, 3.972438797730345E+08, 1.637786547628341E+08, 1.408660627863514E+07,
$$EOE